H1 CPF 01  gfz 2021 08 09 00  7211 tandemx   
H2 1003001  6202 36605    2021 08 09 00 59 42 2021 08 14 00 00 42   120 1 1  0 0 0
H9
10 0 59439  55422.000000  0    2322643.747    822550.509   6422157.906
10 0 59439  55542.000000  0    1667072.832    225345.436   6669192.816
10 0 59439  55662.000000  0     972032.490   -363974.301   6799030.513
10 0 59439  55782.000000  0     249885.894   -934543.038   6809405.538
10 0 59439  55902.000000  0    -486349.763  -1476045.280   6700138.274
10 0 59439  56022.000000  0   -1223237.774  -1978902.003   6473137.205
10 0 59439  56142.000000  0   -1947165.900  -2434439.944   6132365.997
10 0 59439  56262.000000  0   -2644595.361  -2835041.010   5683779.349
10 0 59439  56382.000000  0   -3302315.404  -3174272.833   5135227.663
10 0 59439  56502.000000  0   -3907698.794  -3446995.859   4496324.989
10 0 59439  56622.000000  0   -4448948.586  -3649443.632   3778283.981
10 0 59439  56742.000000  0   -4915333.020  -3779275.792   2993722.196
10 0 59439  56862.000000  0   -5297404.349  -3835602.944   2156442.061
10 0 59439  56982.000000  0   -5587196.759  -3818982.637   1281185.448
10 0 59439  57102.000000  0   -5778396.213  -3731384.458    383368.166
10 0 59439  57222.000000  0   -5866478.811  -3576125.836   -521199.010
10 0 59439  57342.000000  0   -5848813.983  -3357780.504  -1416597.972
10 0 59439  57462.000000  0   -5724728.306  -3082060.618  -2287093.525
10 0 59439  57582.000000  0   -5495528.604  -2755676.507  -3117416.634
10 0 59439  57702.000000  0   -5164486.103  -2386178.924  -3893036.199
10 0 59439  57822.000000  0   -4736781.852  -1981787.189  -4600413.679
10 0 59439  57942.000000  0   -4219415.910  -1551208.380  -5227236.330
10 0 59439  58062.000000  0   -3621082.472  -1103451.240  -5762625.369
10 0 59439  58182.000000  0   -2952014.558   -647639.164  -6197314.953
10 0 59439  58302.000000  0   -2223802.788   -192826.815  -6523801.128
10 0 59439  58422.000000  0   -1449191.032    252175.951  -6736459.769
10 0 59439  58542.000000  0    -641853.971    678969.564  -6831632.214
10 0 59439  58662.000000  0     183839.615   1079718.980  -6807681.203
10 0 59439  58782.000000  0    1013075.493   1447293.141  -6665015.798
10 0 59439  58902.000000  0    1830853.556   1775388.818  -6406087.853
10 0 59439  59022.000000  0    2622253.942   2058637.800  -6035354.329
10 0 59439  59142.000000  0    3372705.398   2292694.321  -5559208.095
10 0 59439  59262.000000  0    4068250.556   2474301.895  -4985877.893
10 0 59439  59382.000000  0    4695807.230   2601339.450  -4325298.511
10 0 59439  59502.000000  0    5243419.777   2672844.841  -3588948.687
10 0 59439  59622.000000  0    5700493.467   2689014.927  -2789659.925
10 0 59439  59742.000000  0    6058009.402   2651182.571  -1941399.713
10 0 59439  59862.000000  0    6308713.122   2561769.596  -1059027.996
10 0 59439  59982.000000  0    6447270.413   2424216.493   -158034.904
10 0 59439  60102.000000  0    6470387.346   2242890.286    745737.627
10 0 59439  60222.000000  0    6376888.150   2022972.056   1636381.184
10 0 59439  60342.000000  0    6167754.213   1770329.514   2498208.810
10 0 59439  60462.000000  0    5846117.751   1491374.433   3316041.134
10 0 59439  60582.000000  0    5417211.809   1192910.393   4075481.081
10 0 59439  60702.000000  0    4888277.133    881974.489   4763172.141
10 0 59439  60822.000000  0    4268431.482    565677.950   5367033.951
10 0 59439  60942.000000  0    3568502.980    251047.935   5876474.301
10 0 59439  61062.000000  0    2800830.563    -55124.781   6282570.402
10 0 59439  61182.000000  0    1979040.057   -346427.942   6578218.302
10 0 59439  61302.000000  0    1117798.551   -616958.910   6758252.065
10 0 59439  61422.000000  0     232549.255   -861442.554   6819529.622
10 0 59439  61542.000000  0    -660766.569  -1075332.793   6760982.966
10 0 59439  61662.000000  0   -1545995.909  -1254897.015   6583634.806
10 0 59439  61782.000000  0   -2407064.647  -1397281.149   6290580.760
10 0 59439  61902.000000  0   -3228267.384  -1500554.210   5886939.153
10 0 59439  62022.000000  0   -3994556.001  -1563733.326   5379769.622
10 0 59439  62142.000000  0   -4691820.791  -1586789.072   4777955.631
10 0 59439  62262.000000  0   -5307157.264  -1570629.373   4092053.738
10 0 59439  62382.000000  0   -5829112.768  -1517062.080   3334111.192
10 0 59439  62502.000000  0   -6247907.691  -1428737.213   2517456.399
10 0 59439  62622.000000  0   -6555629.025  -1309071.079   1656465.119
10 0 59439  62742.000000  0   -6746390.003  -1162153.043    766302.106
10 0 59439  62862.000000  0   -6816447.962   -992636.612   -137353.770
10 0 59439  62982.000000  0   -6764279.638   -805618.163  -1038594.430
10 0 59439  63102.000000  0   -6590611.376   -606506.488  -1921571.801
10 0 59439  63222.000000  0   -6298403.920   -400886.670  -2770783.421
10 0 59439  63342.000000  0   -5892794.470   -194382.639  -3571350.593
10 0 59439  63462.000000  0   -5380994.182      7480.218  -4309282.683
10 0 59439  63582.000000  0   -4772146.204    199407.678  -4971719.784
10 0 59439  63702.000000  0   -4077149.907    376461.588  -5547151.429
10 0 59439  63822.000000  0   -3308454.521    534173.586  -6025608.284
10 0 59439  63942.000000  0   -2479827.769    668645.417  -6398822.982
10 0 59439  64062.000000  0   -1606106.457    776634.767  -6660360.951
10 0 59439  64182.000000  0    -702930.734    855625.243  -6805721.038
10 0 59439  64302.000000  0     213531.735    903879.459  -6832403.059
10 0 59439  64422.000000  0    1126866.904    920473.936  -6739946.312
10 0 59439  64542.000000  0    2020701.756    905316.005  -6529939.369
10 0 59439  64662.000000  0    2878992.145    859142.654  -6205995.616
10 0 59439  64782.000000  0    3686306.342    783501.107  -5773697.051
10 0 59439  64902.000000  0    4428099.497    680710.666  -5240507.355
10 0 59439  65022.000000  0    5090977.100    553807.027  -4615654.960
10 0 59439  65142.000000  0    5662943.044    406470.090  -3909984.412
10 0 59439  65262.000000  0    6133625.288    242935.542  -3135777.343
10 0 59439  65382.000000  0    6494475.098     67892.582  -2306546.406
10 0 59439  65502.000000  0    6738936.182   -113630.687  -1436803.017
10 0 59439  65622.000000  0    6862575.992   -296391.319   -541802.008
10 0 59439  65742.000000  0    6863176.190   -475061.673    362729.667
10 0 59439  65862.000000  0    6740780.534   -644363.457   1260875.959
10 0 59439  65982.000000  0    6497696.972   -799201.600   2136820.238
10 0 59439  66102.000000  0    6138454.166   -934794.433   2975133.837
10 0 59439  66222.000000  0    5669711.195  -1046796.688   3761055.663
10 0 59439  66342.000000  0    5100127.306  -1131412.171   4480757.121
10 0 59439  66462.000000  0    4440192.363  -1185494.438   5121588.816
10 0 59439  66582.000000  0    3702023.242  -1206630.687   5672302.338
10 0 59439  66702.000000  0    2899132.141  -1193208.526   6123244.947
10 0 59439  66822.000000  0    2046171.465  -1144465.001   6466523.408
10 0 59439  66942.000000  0    1158661.721  -1060516.462   6696136.811
10 0 59439  67062.000000  0     252705.014   -942368.306   6808076.112
10 0 59439  67182.000000  0    -655308.362   -791904.402   6800388.511
10 0 59439  67302.000000  0   -1548995.359   -611857.268   6673208.373
10 0 59439  67422.000000  0   -2412274.252   -405758.594   6428754.811
10 0 59439  67542.000000  0   -3229652.793   -177871.085   6071296.061
10 0 59439  67662.000000  0   -3986507.636     66897.340   5607080.731
10 0 59439  67782.000000  0   -4669350.404    323095.585   5044234.826
10 0 59439  67902.000000  0   -5266074.622    584845.701   4392625.191
10 0 59439  68022.000000  0   -5766179.005    845971.737   3663690.841
10 0 59439  68142.000000  0   -6160960.996   1100138.487   2870244.677
10 0 59439  68262.000000  0   -6443678.040   1340997.099   2026248.718
10 0 59439  68382.000000  0   -6609671.624   1562333.624   1146565.667
10 0 59439  68502.000000  0   -6656451.327   1758217.619    246691.175
10 0 59439  68622.000000  0   -6583734.184   1923146.564   -657527.986
10 0 59439  68742.000000  0   -6393438.898   2052181.609  -1550181.966
10 0 59439  68862.000000  0   -6089636.547   2141072.206  -2415585.750
10 0 59439  68982.000000  0   -5678458.364   2186366.718  -3238562.529
10 0 59439  69102.000000  0   -5167961.869   2185505.112  -4004714.630
10 0 59439  69222.000000  0   -4567961.197   2136891.581  -4700675.339
10 0 59439  69342.000000  0   -3889826.882   2039946.471  -5314337.841
10 0 59439  69462.000000  0   -3146260.828   1895136.811  -5835057.464
10 0 59439  69582.000000  0   -2351052.601   1703985.236  -6253826.281
10 0 59439  69702.000000  0   -1518819.720   1469057.066  -6563418.543
10 0 59439  69822.000000  0    -664738.450   1193925.981  -6758502.791
10 0 59439  69942.000000  0     195728.689    883119.372  -6835723.350
10 0 59439  70062.000000  0    1047105.312    542045.240  -6793751.776
10 0 59439  70182.000000  0    1874173.590    176900.034  -6633309.483
10 0 59439  70302.000000  0    2662240.496   -205441.265  -6357155.744
10 0 59439  70422.000000  0    3397394.054   -597550.415  -5970045.914
10 0 59439  70542.000000  0    4066746.468   -991585.650  -5478656.875
10 0 59439  70662.000000  0    4658660.277  -1379443.404  -4891483.542
10 0 59439  70782.000000  0    5162956.189  -1752921.339  -4218703.905
10 0 59439  70902.000000  0    5571096.117  -2103888.077  -3472012.983
10 0 59439  71022.000000  0    5876338.194  -2424456.622  -2664427.755
10 0 59439  71142.000000  0    6073859.359  -2707157.975  -1810064.755
10 0 59439  71262.000000  0    6160841.508  -2945110.375   -923894.340
10 0 59439  71382.000000  0    6136519.517  -3132180.179    -21476.238
10 0 59439  71502.000000  0    6002188.488  -3263130.218    881319.135
10 0 59439  71622.000000  0    5761170.621  -3333751.819   1768597.761
10 0 59439  71742.000000  0    5418738.991  -3340975.867   2624732.239
10 0 59439  71862.000000  0    4982001.827  -3282960.544   3434644.828
99
